{"type":"FeatureCollection","features":[{"type":"Feature","id":0,"geometry":{"type":"Polygon","coordinates":[[[-57.135281066933203,-32.005886547283126],[-57.135161381834742,-32.00546875274248],[-57.134418901337526,-32.002944042685435],[-57.136233481102408,-32.002312029243789],[-57.138209497795664,-32.002327959798549],[-57.138304416012168,-32.003673458060113],[-57.138432900504817,-32.005988095490395],[-57.135281066933203,-32.005886547283126]]]},"properties":{"FID":0,"AREA":12.8000002,"PASTURA":" ","ESP_VEG":" ","ID_Parcela":"RI9","Nombre":"La Chacra"}},{"type":"Feature","id":1,"geometry":{"type":"Polygon","coordinates":[[[-57.135375599551075,-32.006239868922613],[-57.135281066932798,-32.005886547283282],[-57.138432900504817,-32.005988095490395],[-57.138565917734454,-32.008415778063465],[-57.135779592346871,-32.007471490194177],[-57.135736155903686,-32.007312914307924],[-57.135375599551075,-32.006239868922613]]]},"properties":{"FID":1,"AREA":6.0999999,"PASTURA":"PC","ESP_VEG":"Tb+Lc+Rg","ID_Parcela":"RI8","Nombre":"1 C"}},{"type":"Feature","id":2,"geometry":{"type":"Polygon","coordinates":[[[-57.135779592347703,-32.007471490193808],[-57.1385659177352,-32.008415778063103],[-57.138741187232448,-32.011712501515582],[-57.136067001941512,-32.010403548347192],[-57.133189754997076,-32.014093171264086],[-57.132155213035531,-32.016825995114317],[-57.128600993880355,-32.012389627380259],[-57.130571084429242,-32.012823470979235],[-57.130808873628084,-32.012861407896054],[-57.130932027094651,-32.01301894174216],[-57.131502611722006,-32.012653579331342],[-57.131363210327812,-32.01249992892734],[-57.132772525937916,-32.011687989079995],[-57.133725060000835,-32.00791471463878],[-57.133792939407627,-32.007566169997851],[-57.135779592347703,-32.007471490193808]]]},"properties":{"FID":2,"AREA":33.4000015,"PASTURA":"CN","ESP_VEG":"CN","ID_Parcela":"C3","Nombre":"El Nuevo"}},{"type":"Feature","id":3,"geometry":{"type":"Polygon","coordinates":[[[-57.13913630666741,-32.019028083623844],[-57.138741187231119,-32.011712501516222],[-57.138565917733892,-32.008415778063736],[-57.147251990289313,-32.010616268495781],[-57.145831335628472,-32.019089852253622],[-57.13913630666741,-32.019028083623844]]]},"properties":{"FID":3,"AREA":77.3000031,"PASTURA":"CN","ESP_VEG":"CN","ID_Parcela":"C5","Nombre":"Picada 1"}},{"type":"Feature","id":4,"geometry":{"type":"Polygon","coordinates":[[[-57.142983297969515,-32.019063619335626],[-57.14583133563022,-32.019089852252861],[-57.14708871329907,-32.019266199084505],[-57.145864722248163,-32.028491676679522],[-57.142707652016007,-32.028314346774721],[-57.142983297969515,-32.019063619335626]]]},"properties":{"FID":4,"AREA":35.5,"PASTURA":"CN","ESP_VEG":"CN","ID_Parcela":"C11","Nombre":"Tajamar A CN"}},{"type":"Feature","id":5,"geometry":{"type":"Polygon","coordinates":[[[-57.164359175010389,-32.010925527365515],[-57.168165635013089,-32.009907621880451],[-57.168708294062284,-32.011177528793716],[-57.167856118940428,-32.011429301928096],[-57.168478670305007,-32.012445518186368],[-57.169160514686126,-32.012235766782169],[-57.170135563053577,-32.014517380582546],[-57.166842127159306,-32.016074155526319],[-57.164359175010389,-32.010925527365515]]]},"properties":{"FID":5,"AREA":20.2000008,"PASTURA":"CN","ESP_VEG":"CN","ID_Parcela":"C19","Nombre":"CN Fertilizado"}},{"type":"Feature","id":6,"geometry":{"type":"Polygon","coordinates":[[[-57.162421821312449,-32.034148582256229],[-57.164325383379058,-32.034283837407671],[-57.164832286155715,-32.034140990878676],[-57.165512853665888,-32.036629595468675],[-57.165676574265873,-32.037503142334465],[-57.165289137962219,-32.038102416660458],[-57.16468288566508,-32.038730071126437],[-57.162789336759296,-32.038600411902124],[-57.162421821312449,-32.034148582256229]]]},"properties":{"FID":6,"AREA":12.3999996,"PASTURA":"MCN","ESP_VEG":"Tb+LC","ID_Parcela":"RI14","Nombre":"Mej. 4 Abajo"}},{"type":"Feature","id":7,"geometry":{"type":"Polygon","coordinates":[[[-57.162789336759481,-32.038600411902109],[-57.16468288566508,-32.038730071126437],[-57.165289137962219,-32.038102416660458],[-57.165576606766962,-32.038490325863705],[-57.165989511865853,-32.03946004382054],[-57.165192225977428,-32.042250147144003],[-57.164760226267532,-32.043457948950753],[-57.162783376403091,-32.043280885386146],[-57.162789336759481,-32.038600411902109]]]},"properties":{"FID":7,"AREA":13.6000004,"PASTURA":"MCN","ESP_VEG":"Tb+LC","ID_Parcela":"RI22","Nombre":"Mej. 5 Abajo"}},{"type":"Feature","id":8,"geometry":{"type":"Polygon","coordinates":[[[-57.160018739355209,-32.04303320800215],[-57.164760226267319,-32.043457948950831],[-57.163247631767064,-32.0461258690801],[-57.16248981581623,-32.046654012876132],[-57.161261982016434,-32.047072553351221],[-57.160240422053946,-32.047714312449486],[-57.159961178916028,-32.048016849307579],[-57.15994665062081,-32.04822665774892],[-57.159523823179953,-32.048596870777246],[-57.155938269004956,-32.048823401007027],[-57.155446798311061,-32.048777303900103],[-57.154833711267948,-32.042539630714678],[-57.160018739355209,-32.04303320800215]]]},"properties":{"FID":8,"AREA":45.0999985,"PASTURA":"CN","ESP_VEG":"CN","ID_Parcela":"C9","Nombre":"Potrero 16"}},{"type":"Feature","id":9,"geometry":{"type":"Polygon","coordinates":[[[-57.151393821565215,-32.028836771216305],[-57.15867360002779,-32.029395836851151],[-57.159205547041331,-32.031868386320895],[-57.154001425683091,-32.031411327166538],[-57.153992609660918,-32.033546740007409],[-57.151856111554778,-32.033368103324129],[-57.151393821565215,-32.028836771216305]]]},"properties":{"FID":9,"AREA":23.6000004,"PASTURA":"MCN","ESP_VEG":"Rincon","ID_Parcela":"C16","Nombre":"Mej. 1"}},{"type":"Feature","id":10,"geometry":{"type":"Polygon","coordinates":[[[-57.153992609660705,-32.033546740007509],[-57.15677359785024,-32.033745902395026],[-57.156944700901875,-32.038193251010377],[-57.154399442263013,-32.038012256080698],[-57.153992609660705,-32.033546740007509]]]},"properties":{"FID":10,"AREA":12.3999996,"PASTURA":"MCN","ESP_VEG":"Tb+LC","ID_Parcela":"C18","Nombre":"Mej. 2 Arriba"}},{"type":"Feature","id":11,"geometry":{"type":"Polygon","coordinates":[[[-57.154399442262807,-32.038012256080805],[-57.159578276115226,-32.038380471633211],[-57.160018739355209,-32.04303320800215],[-57.154833711267948,-32.042539630714678],[-57.154399442262807,-32.038012256080805]]]},"properties":{"FID":11,"AREA":24.7000008,"PASTURA":"MCN","ESP_VEG":"Tb+LC","ID_Parcela":"RI10","Nombre":"Mej. 3"}},{"type":"Feature","id":12,"geometry":{"type":"Polygon","coordinates":[[[-57.154399442262807,-32.038012256080805],[-57.154833711267948,-32.042539630714678],[-57.150044443921523,-32.042137071099354],[-57.149735485954984,-32.037668224255647],[-57.154399442262807,-32.038012256080805]]]},"properties":{"FID":12,"AREA":22.1000004,"PASTURA":"CN","ESP_VEG":"CN","ID_Parcela":"C10","Nombre":"Potrero 17"}},{"type":"Feature","id":13,"geometry":{"type":"Polygon","coordinates":[[[-57.149735485954984,-32.037668224255647],[-57.150044443921523,-32.042137071099354],[-57.147487616927286,-32.041867963418468],[-57.147110450077712,-32.037506081016033],[-57.149735485954984,-32.037668224255647]]]},"properties":{"FID":13,"AREA":11.8999996,"PASTURA":"PC","ESP_VEG":"Varios","ID_Parcela":"RI24","Nombre":"Mej. 8"}},{"type":"Feature","id":14,"geometry":{"type":"Polygon","coordinates":[[[-57.152457482665092,-32.033418388834093],[-57.153992609660705,-32.033546740007509],[-57.154399442263013,-32.038012256080698],[-57.14973548595519,-32.037668224255555],[-57.147110450077911,-32.037506081015948],[-57.146936080509022,-32.034330412389203],[-57.147717386929763,-32.034296305986182],[-57.149084185968725,-32.03423662942496],[-57.151879018444198,-32.034002080983193],[-57.151856111554572,-32.033368103324236],[-57.152457482665092,-32.033418388834093]]]},"properties":{"FID":14,"AREA":28.3999996,"PASTURA":"CN","ESP_VEG":"CN","ID_Parcela":"C7","Nombre":"Potrero 12"}},{"type":"Feature","id":15,"geometry":{"type":"Polygon","coordinates":[[[-57.148282832624666,-32.028649731969921],[-57.151393821565023,-32.028836771216419],[-57.151856111554572,-32.033368103324236],[-57.151879018444404,-32.034002080983107],[-57.149084185968725,-32.03423662942496],[-57.147717386929763,-32.034296305986182],[-57.147697105713895,-32.032316118056634],[-57.147209672359573,-32.032353578413449],[-57.147195621248621,-32.031537727726359],[-57.148346357688524,-32.031561497632296],[-57.148282832624666,-32.028649731969921]]]},"properties":{"FID":15,"AREA":21.1000004,"PASTURA":" ","ESP_VEG":" ","ID_Parcela":"RI23","Nombre":"Mej. 7"}},{"type":"Feature","id":16,"geometry":{"type":"Polygon","coordinates":[[[-57.139590298940057,-32.028126708758016],[-57.14828283262446,-32.02864973197002],[-57.148346357688339,-32.031561497632381],[-57.147195621248429,-32.031537727726452],[-57.147209672359374,-32.032353578413534],[-57.147697105713689,-32.032316118056741],[-57.147717386929543,-32.034296305986295],[-57.146936080508844,-32.034330412389245],[-57.139931015044425,-32.034651456690888],[-57.139590298940057,-32.028126708758016]]]},"properties":{"FID":16,"AREA":52.2000008,"PASTURA":"MCN","ESP_VEG":"Tb194","ID_Parcela":"C15","Nombre":"Mej. 11"}},{"type":"Feature","id":17,"geometry":{"type":"Polygon","coordinates":[[[-57.127119813692964,-32.01045834250327],[-57.133563831980673,-32.006393749060692],[-57.133792939407805,-32.007566169997766],[-57.133725060001019,-32.007914714638694],[-57.132798003085952,-32.011713001432447],[-57.131363210327812,-32.01249992892734],[-57.131502611722006,-32.012653579331342],[-57.130932027094651,-32.01301894174216],[-57.130808873628276,-32.012861407895954],[-57.130599677057667,-32.012829767250594],[-57.128600993880148,-32.012389627380344],[-57.127119813692964,-32.01045834250327]]]},"properties":{"FID":17,"AREA":24.2000008,"PASTURA":"CN","ESP_VEG":"CN","ID_Parcela":"C2","Nombre":"El Piquete"}},{"type":"Feature","id":18,"geometry":{"type":"Polygon","coordinates":[[[-57.168165635012897,-32.009907621880529],[-57.168844144840421,-32.009711972087707],[-57.169233248549361,-32.009660407970244],[-57.170011934598477,-32.012161834485454],[-57.170837386244884,-32.013761551100153],[-57.171254688983822,-32.015011306227521],[-57.171387374609004,-32.016864455096758],[-57.170599528875371,-32.017975973801505],[-57.167621493652874,-32.017690109274575],[-57.166842127159306,-32.016074155526319],[-57.170135563053577,-32.014517380582546],[-57.168165635012897,-32.009907621880529]]]},"properties":{"FID":18,"AREA":16.7000008,"PASTURA":"CN","ESP_VEG":"CN","ID_Parcela":"RI30","Nombre":"El Triangulo"}},{"type":"Feature","id":19,"geometry":{"type":"Polygon","coordinates":[[[-57.141312583888798,-32.049947417522873],[-57.14036142527798,-32.041188426188377],[-57.14515018243565,-32.041645116479572],[-57.145032484803671,-32.043229657812027],[-57.147694010167214,-32.04351014682878],[-57.147797770027985,-32.044335697201753],[-57.148428100865097,-32.049350450760329],[-57.141312583888798,-32.049947417522873]]]},"properties":{"FID":19,"AREA":56.2999992,"PASTURA":"CN","ESP_VEG":"CN","ID_Parcela":"C8","Nombre":"Potrero 14 B"}},{"type":"Feature","id":20,"geometry":{"type":"Polygon","coordinates":[[[-57.13993101504505,-32.034651456690632],[-57.146936080509391,-32.034330412389011],[-57.147110450078316,-32.037506081015749],[-57.147234058427891,-32.038935641580963],[-57.146683545779631,-32.038770665923316],[-57.14610388257875,-32.04173604593489],[-57.143483668549166,-32.04148620678631],[-57.143089305476977,-32.037693483395614],[-57.140111142253815,-32.037869967878834],[-57.139991425824135,-32.035730910357074],[-57.13993101504505,-32.034651456690632]]]},"properties":{"FID":20,"AREA":37.5,"PASTURA":"CN","ESP_VEG":"CN","ID_Parcela":"RI2","Nombre":"Potrero 13"}},{"type":"Feature","id":21,"geometry":{"type":"Polygon","coordinates":[[[-57.151897870013066,-32.044566429708631],[-57.151920040154806,-32.042294745440522],[-57.154833711268147,-32.042539630714572],[-57.155143945963431,-32.045696149432679],[-57.155446798311246,-32.048777303900025],[-57.148428100864685,-32.049350450760492],[-57.148043876873764,-32.046293737128259],[-57.1477440594212,-32.043908358408814],[-57.151897870013066,-32.044566429708631]]]},"properties":{"FID":21,"AREA":41.7999992,"PASTURA":"CN","ESP_VEG":"CN","ID_Parcela":"RI1","Nombre":"Potrero 15 A"}},{"type":"Feature","id":22,"geometry":{"type":"Polygon","coordinates":[[[-57.128535498798662,-32.003883884712714],[-57.137885815268547,-31.996913019653299],[-57.138209497795884,-32.002327959798535],[-57.136233481102408,-32.002312029243789],[-57.134418901337739,-32.002944042685328],[-57.135161381834529,-32.005468752742566],[-57.135281066933203,-32.005886547283126],[-57.135375599551452,-32.006239868922457],[-57.134480271206684,-32.006331289037107],[-57.133563831981071,-32.006393749060486],[-57.12711981369258,-32.010458342503441],[-57.124531454343405,-32.006961555189974],[-57.128535498798662,-32.003883884712714]]]},"properties":{"FID":22,"AREA":71.1999969,"PASTURA":"CN","ESP_VEG":"CN","ID_Parcela":"C1","Nombre":"El Algarrobo"}},{"type":"Feature","id":23,"geometry":{"type":"Polygon","coordinates":[[[-57.162935446230073,-32.031706693226361],[-57.163067669779181,-32.0297106634887],[-57.165647123512983,-32.029895404427648],[-57.164808790705216,-32.031064861908455],[-57.164625991955049,-32.032368838055753],[-57.164832286156098,-32.034140990878484],[-57.164325383379435,-32.034283837407507],[-57.162826704014847,-32.034177353089049],[-57.162935446230073,-32.031706693226361]]]},"properties":{"FID":23,"AREA":9,"PASTURA":"CN","ESP_VEG":"CN","ID_Parcela":"RI18","Nombre":"M6 Abajo"}},{"type":"Feature","id":24,"geometry":{"type":"Polygon","coordinates":[[[-57.133189754995961,-32.01409317126452],[-57.13606700194029,-32.010403548347767],[-57.138741187231311,-32.011712501516115],[-57.138853566084947,-32.013793340862094],[-57.137513346208614,-32.014318332204255],[-57.135327076162461,-32.01412606618748],[-57.135380226830847,-32.015722277374209],[-57.132749702647537,-32.015255624036129],[-57.133189754995961,-32.01409317126452]]]},"properties":{"FID":24,"AREA":18,"PASTURA":" ","ESP_VEG":" ","ID_Parcela":"RI5","Nombre":"Los Paraisos A"}},{"type":"Feature","id":25,"geometry":{"type":"Polygon","coordinates":[[[-57.133131104769895,-32.018059414949469],[-57.135402339938324,-32.01638634863685],[-57.135327076162291,-32.014126066187572],[-57.137513346208415,-32.014318332204368],[-57.138853566084762,-32.013793340862172],[-57.13913630666741,-32.019028083623844],[-57.135434994388881,-32.020971111714573],[-57.133131104769895,-32.018059414949469]]]},"properties":{"FID":25,"AREA":27.7000008,"PASTURA":"CN","ESP_VEG":"CN","ID_Parcela":"C17","Nombre":"Los Paraisos C"}},{"type":"Feature","id":26,"geometry":{"type":"Polygon","coordinates":[[[-57.132749702647345,-32.01525562403625],[-57.135380226830634,-32.015722277374287],[-57.135402339938324,-32.01638634863685],[-57.133131104769895,-32.018059414949469],[-57.132155213034174,-32.016825995114971],[-57.132749702647345,-32.01525562403625]]]},"properties":{"FID":26,"AREA":5.80000019,"PASTURA":"CN","ESP_VEG":"CN","ID_Parcela":"RI6","Nombre":"Los Paraisos B"}},{"type":"Feature","id":27,"geometry":{"type":"Polygon","coordinates":[[[-57.153206929915271,-32.023548616898807],[-57.154307868056954,-32.020337301246393],[-57.15648426372465,-32.02062680823861],[-57.155250463853811,-32.024920153312856],[-57.153634166193221,-32.024664209318203],[-57.15386436011029,-32.02367645275379],[-57.153206929915271,-32.023548616898807]]]},"properties":{"FID":27,"AREA":9.80000019,"PASTURA":" ","ESP_VEG":" ","ID_Parcela":"RI20","Nombre":"Las Moras D"}},{"type":"Feature","id":28,"geometry":{"type":"Polygon","coordinates":[[[-57.146473982360163,-32.023899785956623],[-57.149752200386402,-32.024168348677101],[-57.149956874283454,-32.023276948160898],[-57.153262149875424,-32.023635467175339],[-57.151339157609911,-32.028937871009781],[-57.145776299649121,-32.028516863948589],[-57.146473982360163,-32.023899785956623]]]},"properties":{"FID":28,"AREA":32.2999992,"PASTURA":" ","ESP_VEG":" ","ID_Parcela":"C12","Nombre":"Tajamar C CN"}},{"type":"Feature","id":29,"geometry":{"type":"Polygon","coordinates":[[[-57.156190948194514,-32.014615425895009],[-57.156199010512395,-32.014592948367465],[-57.1567576581254,-32.013035427069852],[-57.164359175010759,-32.010925527365352],[-57.167381125412625,-32.0171917322292],[-57.167621493653435,-32.017690109274284],[-57.167616261203527,-32.017693524706225],[-57.167606811405761,-32.017699692970631],[-57.166163774480381,-32.018641603703543],[-57.165575129816283,-32.017987382985588],[-57.163527476554179,-32.018579610940577],[-57.163947323124034,-32.020088275221241],[-57.161892246403518,-32.02142954379493],[-57.154307868057693,-32.020337301246109],[-57.156186753007866,-32.014627121959393],[-57.156190948194514,-32.014615425895009]]]},"properties":{"FID":29,"AREA":93.3000031,"PASTURA":"CN","ESP_VEG":"CN","ID_Parcela":"C4","Nombre":"La Reserva"}},{"type":"Feature","id":30,"geometry":{"type":"Polygon","coordinates":[[[-57.140111142253851,-32.037869967878883],[-57.143089305476977,-32.037693483395635],[-57.14348366854896,-32.041486206786395],[-57.140361425277611,-32.041188426188583],[-57.140240872249315,-32.040187798671639],[-57.140111142253851,-32.037869967878883]]]},"properties":{"FID":30,"AREA":11.3999996,"PASTURA":" ","ESP_VEG":" ","ID_Parcela":"RI7","Nombre":"Mej. 13 C"}},{"type":"Feature","id":31,"geometry":{"type":"Polygon","coordinates":[[[-57.1519200401546,-32.042294745440614],[-57.151897870012867,-32.044566429708702],[-57.14774405942098,-32.043908358408892],[-57.147487616927492,-32.041867963418419],[-57.150044443921729,-32.042137071099269],[-57.1519200401546,-32.042294745440614]]]},"properties":{"FID":31,"AREA":9.60000038,"PASTURA":" ","ESP_VEG":" ","ID_Parcela":"RI31","Nombre":"Potrero 15 B"}},{"type":"Feature","id":32,"geometry":{"type":"Polygon","coordinates":[[[-57.159146769168721,-32.033915809764693],[-57.15957827611544,-32.038380471633118],[-57.156944700901668,-32.038193251010462],[-57.156773597850041,-32.033745902395104],[-57.159146769168721,-32.033915809764693]]]},"properties":{"FID":32,"AREA":11.6000004,"PASTURA":" ","ESP_VEG":" ","ID_Parcela":"C20","Nombre":"Mej. 2 Abajo"}},{"type":"Feature","id":33,"geometry":{"type":"Polygon","coordinates":[[[-57.162789336759481,-32.038600411902109],[-57.162783376403283,-32.043280885386082],[-57.160018739355415,-32.0430332080021],[-57.15957827611544,-32.038380471633118],[-57.162789336759481,-32.038600411902109]]]},"properties":{"FID":33,"AREA":14.5,"PASTURA":" ","ESP_VEG":" ","ID_Parcela":"RI21","Nombre":"Mej. 5 Arriba"}},{"type":"Feature","id":34,"geometry":{"type":"Polygon","coordinates":[[[-57.14298329796933,-32.019063619335739],[-57.142707652015801,-32.028314346774842],[-57.139590298941478,-32.028126708757426],[-57.139136306668803,-32.019028083623198],[-57.14298329796933,-32.019063619335739]]]},"properties":{"FID":34,"AREA":33.4000015,"PASTURA":" ","ESP_VEG":" ","ID_Parcela":"C13","Nombre":"Tajamar A CNM"}},{"type":"Feature","id":35,"geometry":{"type":"Polygon","coordinates":[[[-57.154307868057693,-32.020337301246109],[-57.153248125830686,-32.023558939733142],[-57.149956874283248,-32.023276948161012],[-57.15066935166135,-32.019801912546498],[-57.154307868057693,-32.020337301246109]]]},"properties":{"FID":35,"AREA":12.5,"PASTURA":" ","ESP_VEG":" ","ID_Parcela":"C14","Nombre":"Tajamar E+D"}},{"type":"Feature","id":36,"geometry":{"type":"Polygon","coordinates":[[[-57.1567576581254,-32.013035427069852],[-57.154307868057309,-32.020337301246229],[-57.152817839558715,-32.020118064715049],[-57.153120867109472,-32.016050851805424],[-57.149238622446155,-32.01820742135515],[-57.14972106747301,-32.019662359289548],[-57.145831335628856,-32.019089852253458],[-57.14725199028971,-32.01061626849561],[-57.1567576581254,-32.013035427069852]]]},"properties":{"FID":36,"AREA":67.8000031,"PASTURA":" ","ESP_VEG":" ","ID_Parcela":"C6","Nombre":"Picada 2 A"}},{"type":"Feature","id":37,"geometry":{"type":"Polygon","coordinates":[[[-57.152817839558899,-32.020118064714978],[-57.149721067473195,-32.01966235928947],[-57.14923862244634,-32.018207421355051],[-57.153120867109664,-32.01605085180536],[-57.152817839558899,-32.020118064714978]]]},"properties":{"FID":37,"AREA":10.1999998,"PASTURA":" ","ESP_VEG":" ","ID_Parcela":"RI3","Nombre":"Picada 2 B"}},{"type":"Feature","id":38,"geometry":{"type":"Polygon","coordinates":[[[-57.159171112505135,-32.031868437849077],[-57.159146769168721,-32.033915809764693],[-57.153992609660911,-32.033546740007431],[-57.154001425683518,-32.031411327166445],[-57.159171112505135,-32.031868437849077]]]},"properties":{"FID":38,"AREA":11.3000002,"PASTURA":" ","ESP_VEG":" ","ID_Parcela":"C22","Nombre":"Mej. 1 RG"}},{"type":"Feature","id":39,"geometry":{"type":"Polygon","coordinates":[[[-57.147234058428097,-32.038935641580899],[-57.147487616927492,-32.041867963418419],[-57.146103882578949,-32.041736045934812],[-57.146683545779844,-32.038770665923259],[-57.147234058428097,-32.038935641580899]]]},"properties":{"FID":39,"AREA":3,"PASTURA":" ","ESP_VEG":" ","ID_Parcela":"RI4","Nombre":"Potrero 13 E"}},{"type":"Feature","id":40,"geometry":{"type":"Polygon","coordinates":[[[-57.16117998053376,-32.029575433114736],[-57.160814762799248,-32.031631649677323],[-57.159171112505341,-32.031868437848992],[-57.158673600028209,-32.029395836850988],[-57.16117998053376,-32.029575433114736]]]},"properties":{"FID":40,"AREA":4.9000001,"PASTURA":" ","ESP_VEG":" ","ID_Parcela":"RI15","Nombre":"Mej. 6 Arriba 4"}},{"type":"Feature","id":41,"geometry":{"type":"Polygon","coordinates":[[[-57.160814762799248,-32.031631649677323],[-57.161121035224937,-32.034056139946919],[-57.159146769168721,-32.033915809764693],[-57.159171112505341,-32.031868437848992],[-57.160814762799248,-32.031631649677323]]]},"properties":{"FID":41,"AREA":4.19999981,"PASTURA":" ","ESP_VEG":" ","ID_Parcela":"RI16","Nombre":"Mej. 6 Arriba 5"}},{"type":"Feature","id":42,"geometry":{"type":"Polygon","coordinates":[[[-57.160814762799248,-32.031631649677323],[-57.162935446230293,-32.031706693226248],[-57.162826704015039,-32.034177353088957],[-57.161121035225129,-32.034056139946856],[-57.160814762799248,-32.031631649677323]]]},"properties":{"FID":42,"AREA":4.9000001,"PASTURA":" ","ESP_VEG":" ","ID_Parcela":"RI17","Nombre":"Mej. 6 Arriba 6"}},{"type":"Feature","id":43,"geometry":{"type":"Polygon","coordinates":[[[-57.14515018243587,-32.041645116479494],[-57.147487616927492,-32.04186796341839],[-57.147694010167413,-32.043510146828673],[-57.145032484803885,-32.043229657811914],[-57.14515018243587,-32.041645116479494]]]},"properties":{"FID":43,"AREA":4.19999981,"PASTURA":" ","ESP_VEG":" ","ID_Parcela":"C21","Nombre":"Potrero 14 A"}},{"type":"Feature","id":44,"geometry":{"type":"Polygon","coordinates":[[[-57.146965411777344,-32.020195632142823],[-57.147088713299269,-32.019266199084441],[-57.150669351661136,-32.01980191254659],[-57.150486650907141,-32.020693042118033],[-57.146965411777344,-32.020195632142823]]]},"properties":{"FID":44,"AREA":3.5,"PASTURA":" ","ESP_VEG":" ","ID_Parcela":"RI25","Nombre":"Los Taninos 1"}},{"type":"Feature","id":45,"geometry":{"type":"Polygon","coordinates":[[[-57.150486650907311,-32.020693042117927],[-57.150297513526048,-32.021615548181138],[-57.146839260617604,-32.021146526069685],[-57.146965411777529,-32.020195632142752],[-57.150486650907311,-32.020693042117927]]]},"properties":{"FID":45,"AREA":3.5,"PASTURA":" ","ESP_VEG":" ","ID_Parcela":"RI26","Nombre":"Los Taninos 2"}},{"type":"Feature","id":46,"geometry":{"type":"Polygon","coordinates":[[[-57.15029751352624,-32.021615548181074],[-57.150129337344367,-32.022435801555822],[-57.146720264031785,-32.022043472750937],[-57.14683926061781,-32.021146526069607],[-57.15029751352624,-32.021615548181074]]]},"properties":{"FID":46,"AREA":3.20000005,"PASTURA":" ","ESP_VEG":" ","ID_Parcela":"RI27","Nombre":"Los Taninos 3"}},{"type":"Feature","id":47,"geometry":{"type":"Polygon","coordinates":[[[-57.149956874283454,-32.023276948160898],[-57.146596755066291,-32.022974413421849],[-57.14672026403197,-32.022043472750823],[-57.15012933734458,-32.02243580155573],[-57.149956874283454,-32.023276948160898]]]},"properties":{"FID":47,"AREA":3.20000005,"PASTURA":" ","ESP_VEG":" ","ID_Parcela":"RI28","Nombre":"Los Taninos 4"}},{"type":"Feature","id":48,"geometry":{"type":"Polygon","coordinates":[[[-57.146596755066476,-32.022974413421764],[-57.149956874283454,-32.023276948160898],[-57.149752200386565,-32.024168348677009],[-57.146476747975015,-32.023878940946609],[-57.146596755066476,-32.022974413421764]]]},"properties":{"FID":48,"AREA":3.20000005,"PASTURA":" ","ESP_VEG":" ","ID_Parcela":"RI29","Nombre":"Los Taninos 5"}},{"type":"Feature","id":49,"geometry":{"type":"Polygon","coordinates":[[[-57.162421821312641,-32.034148582256186],[-57.162547021269134,-32.035665218708523],[-57.159296636204019,-32.035466485947538],[-57.159146769168913,-32.033915809764643],[-57.162421821312641,-32.034148582256186]]]},"properties":{"FID":49,"AREA":5.19999981,"PASTURA":" ","ESP_VEG":" ","ID_Parcela":"RI11","Nombre":"Mej. 4 Arriba 1"}},{"type":"Feature","id":50,"geometry":{"type":"Polygon","coordinates":[[[-57.162547021269333,-32.035665218708438],[-57.162672130448776,-32.037180703708316],[-57.159443904926114,-32.036990224716192],[-57.159296636204218,-32.035466485947474],[-57.162547021269333,-32.035665218708438]]]},"properties":{"FID":50,"AREA":5.0999999,"PASTURA":" ","ESP_VEG":" ","ID_Parcela":"RI12","Nombre":"Mej. 4 Arriba 2"}},{"type":"Feature","id":51,"geometry":{"type":"Polygon","coordinates":[[[-57.162672130448982,-32.037180703708209],[-57.162789336759481,-32.038600411902109],[-57.15957827611544,-32.038380471633118],[-57.159443904926299,-32.036990224716092],[-57.162672130448982,-32.037180703708209]]]},"properties":{"FID":51,"AREA":4.69999981,"PASTURA":" ","ESP_VEG":" ","ID_Parcela":"RI13","Nombre":"Mej. 4 Arriba 3"}},{"type":"Feature","id":52,"geometry":{"type":"Polygon","coordinates":[[[-57.170599528875556,-32.017975973801427],[-57.168650955089085,-32.020608472038319],[-57.169070325048928,-32.022375210744428],[-57.168175947318709,-32.024947966895525],[-57.167540887996047,-32.025809099104251],[-57.166766254053307,-32.026513992181926],[-57.166183427449155,-32.027811997990682],[-57.165647123513168,-32.029895404427577],[-57.158673600028003,-32.029395836851066],[-57.151393821565421,-32.028836771216234],[-57.153248125830871,-32.023558939733064],[-57.153864360110489,-32.023676452753698],[-57.153634166193413,-32.024664209318132],[-57.15525046385401,-32.024920153312777],[-57.156484263724863,-32.020626808238546],[-57.161892246403717,-32.021429543794838],[-57.167621493653066,-32.017690109274476],[-57.170599528875556,-32.017975973801427]]]},"properties":{"FID":52,"AREA":150,"PASTURA":" ","ESP_VEG":" ","ID_Parcela":"EXCLUIDO","Nombre":"ELP"}}]}